MUOS-5                  
1 41622U 16041A   20307.57203420 -.00000141  00000-0  00000-0 0  9999
2 41622   6.9565 306.0832 0203675 222.2941 334.9141  1.00273372 16484
TIANTONG-1 1            
1 41725U 16048A   20307.90045086 -.00000310  00000-0  00000-0 0  9997
2 41725   2.8091 337.1591 0003403 314.8628 176.1982  1.00275697 15683
JCSAT-16                
1 41729U 16050A   20307.90071257 -.00000335  00000-0  00000-0 0  9990
2 41729   0.0184 266.1445 0000532  27.2154 176.0131  1.00565387 15490
USA 270                 
1 41744U 16052A   20307.17023243  .00000161  00000-0  00000+0 0  9995
2 41744   0.3092  94.7532 0001499 348.4533  59.2220  1.00340969  7558
USA 271                 
1 41745U 16052B   20293.47704588 -.00000363  00000-0  00000+0 0  9996
2 41745   0.4719  90.6938 0012811 159.8392  74.9006  1.00265398  7219
INTELSAT 36 (IS-36)     
1 41747U 16053A   20308.10929380 -.00000012  00000-0  00000+0 0  9996
2 41747   0.0142 313.5835 0002389  56.4493 140.6684  1.00272109 15381
INTELSAT 33E (IS-33E)   
1 41748U 16053B   20308.10754907  .00000061  00000-0  00000+0 0  9991
2 41748   0.0315  46.3590 0002075 178.3200 276.8836  1.00272425 15646
INSAT-3DR               
1 41752U 16054A   20307.89504222 -.00000066  00000-0  00000-0 0  9992
2 41752   0.0782  91.2623 0012725 173.3630 174.2399  1.00272934 15224
GSAT-18                 
1 41793U 16060A   20307.82318663 -.00000066  00000-0  00000-0 0  9999
2 41793   0.0054 195.0662 0002502 348.3170 229.5527  1.00272877 14954
SKY MUSTER 2            
1 41794U 16060B   20308.13660425 -.00000231  00000-0  00000+0 0  9994
2 41794   0.0140 271.0339 0001668 311.8128  14.0149  1.00272153 14995
HIMAWARI-9              
1 41836U 16064A   20307.90830212 -.00000262  00000-0  00000-0 0  9997
2 41836   0.0048  60.0412 0000471 211.1061 239.2734  1.00272945 14615
SHIJIAN-17 (SJ-17)      
1 41838U 16065A   20307.93959015 -.00000350  00000-0  00000-0 0  9994
2 41838   0.5684  93.8873 0003598 295.1879 109.3760  1.00269766 14630
GOES 16                 
1 41866U 16071A   20308.43948206 -.00000236  00000-0  00000+0 0  9990
2 41866   0.0147 272.0105 0001471 359.4614 214.7596  1.00271336 14531
TIANLIAN 1-04           
1 41869U 16072A   20307.89565288 -.00000096  00000-0  00000-0 0  9993
2 41869   0.1112  89.1899 0014462  16.7825 336.1950  1.00271532 14727
WGS F8 (USA 272)        
1 41879U 16075A   20307.91013406 -.00000190  00000-0  00000-0 0  9995
2 41879   0.0115 308.6626 0000096 152.5656  58.8989  1.00269642 14264
FENGYUN 4A              
1 41882U 16077A   20307.92549221 -.00000318  00000-0  00000-0 0  9993
2 41882   0.1487 285.7544 0003985 124.4004  70.3202  1.00273181 14406
ECHOSTAR 19             
1 41893U 16079A   20307.50198368 -.00000126  00000-0  00000-0 0  9990
2 41893   0.0259 253.0384 0001589 326.5762 266.2118  1.00270281 14138
JCSAT-15                
1 41903U 16082A   20308.03660478 -.00000339  00000-0  00000+0 0  9996
2 41903   0.0149 269.5562 0001610 320.0323 296.4457  1.00271546 14209
STAR ONE D1             
1 41904U 16082B   20307.86160545 -.00000199  00000-0  00000-0 0  9992
2 41904   0.0117 295.1578 0002345 291.7181  41.9149  1.00272282 14196
TJS-2                   
1 41911U 17001A   20308.04526259 -.00000330  00000-0  00000+0 0  9997
2 41911   0.4353  96.0457 0002316 294.1235 136.3864  1.00277440 14148
SBIRS GEO-4 (USA 273)   
1 41937U 17004A   20307.77668985  .00000138  00000-0  00000-0 0  9996
2 41937   3.5210 312.2712 0002655 264.7116 305.7575  1.00272897 14025
HISPASAT 36W-1          
1 41942U 17006A   20308.30374282 -.00000232  00000-0  00000+0 0  9993
2 41942   0.0032 310.6637 0001062 263.3555 262.3829  1.00272036 13952
TELKOM 3S               
1 41944U 17007A   20307.97757564 -.00000350  00000-0  00000+0 0  9997
2 41944   0.0179 273.3844 0002356 313.6065 285.6736  1.00271056 13634
INTELSAT 32E (IS-32E)   
1 41945U 17007B   20308.44593753 -.00000257  00000-0  00000+0 0  9995
2 41945   0.0142 274.1555 0000507 281.7329 324.6351  1.00268532 13673
ECHOSTAR 23             
1 42070U 17014A   20307.90104271 -.00000258  00000-0  00000-0 0  9998
2 42070   0.0161 261.3627 0002117 324.8910  72.8452  1.00269569 13356
WGS F9 (USA 275)        
1 42075U 17016A   20307.89702112  .00000086  00000-0  00000-0 0  9999
2 42075   0.0212 253.8186 0000180 320.3823 208.1149  1.00269321 13326
SES-10                  
1 42432U 17017A   20307.85049372 -.00000260  00000-0  00000-0 0  9990
2 42432   0.0157 293.1427 0002934 298.0608  50.6824  1.00272126 13166
CHINASAT 16 (SJ-13)     
1 42662U 17018A   20308.40476213 -.00000340  00000-0  00000+0 0  9994
2 42662   0.0388  72.1842 0007748 156.5273  70.6835  1.00270443 13161
KOREASAT 7              
1 42691U 17023A   20307.90332965 -.00000350  00000-0  00000-0 0  9993
2 42691   0.0317  91.1760 0001741  97.2726 295.3028  1.00271769 12796
SGDC                    
1 42692U 17023B   20308.08897693 -.00000237  00000-0  00000+0 0  9991
2 42692   0.0459  73.3261 0002343 148.7980 137.8977  1.00272432 12875
GSAT-9                  
1 42695U 17024A   20307.92549222 -.00000275  00000-0  00000-0 0  9992
2 42695   0.0654 102.5756 0002022 121.6084 248.9798  1.00272322 12736
INMARSAT 5-F4           
1 42698U 17025A   20307.89702112  .00000087  00000-0  00000-0 0  9991
2 42698   0.0184 271.2902 0000390  42.9427 107.8385  1.00272125 12686
SES-15                  
1 42709U 17026A   20308.51456763  .00000072  00000-0  00000+0 0  9996
2 42709   0.0235  26.2676 0000614 208.8301 224.2681  1.00267494 13615
QZS-2 (MICHIBIKI-2)     
1 42738U 17028A   20308.20932896 -.00000205  00000-0  00000+0 0  9991
2 42738  42.7650 272.4866 0744803 270.8854  72.6582  1.00250730 12567
VIASAT-2                
1 42740U 17029A   20307.85605097 -.00000253  00000-0  00000-0 0  9999
2 42740   0.0222 270.8066 0000268 346.9931  23.0856  1.00272142 12607
EUTELSAT 172B           
1 42741U 17029B   20308.48514566  .00000007  00000-0  00000+0 0  9995
2 42741   0.0131 260.1623 0000230  56.2888  73.4360  1.00271094 13132
GSAT-19                 
1 42747U 17031A   20308.10510647  .00000137  00000-0  00000+0 0  9993
2 42747   0.1049  97.3959 0003966  57.4565 333.7049  1.00273010 12554
ECHOSTAR 21             
1 42749U 17032A   20307.81716126  .00000072  00000-0  00000+0 0  9991
2 42749   5.2249 312.0619 0002462 266.4139 128.5224  1.00272485 12542
CHINASAT 9A (ZX 9A)     
1 42763U 17035A   20307.92549221 -.00000300  00000-0  00000-0 0  9998
2 42763   0.0327 148.2234 0001777  57.7315 271.2703  1.00268376 13076
BULGARIASAT-1           
1 42801U 17038A   20307.88064830  .00000024  00000-0  00000-0 0  9999
2 42801   0.0198 127.8521 0002645  92.6817 141.0272  1.00272594 12247
HELLAS-SAT 3            
1 42814U 17040A   20308.10336175  .00000164  00000-0  00000+0 0  9990
2 42814   0.0447 348.4252 0000825 276.8991 213.7550  1.00275063 12281
GSAT-17                 
1 42815U 17040B   20307.89888061 -.00000246  00000-0  00000-0 0  9995
2 42815   0.0964 100.1750 0005592 151.5909 207.9862  1.00272182 12219
INTELSAT 35E (IS-35E)   
1 42818U 17041A   20307.87340771 -.00000225  00000-0  00000-0 0  9995
2 42818   0.0167 201.3287 0002220  34.2216  87.0120  1.00272385 12296
COSMOS 2520             
1 42907U 17046A   20308.10458306  .00000149  00000-0  00000+0 0  9993
2 42907   0.0208 138.0291 0000822 262.9582  84.5034  1.00270072 11818
TDRS 13                 
1 42915U 17047A   20307.98381331 -.00000094  00000-0  00000+0 0  9991
2 42915   5.3661 330.3765 0012127 106.4983 308.4226  1.00272927 11800
QZS-3 (MICHIBIKI-3)     
1 42917U 17048A   20307.90559779 -.00000336  00000-0  00000-0 0  9999
2 42917   0.0499 207.8319 0002107  25.0984 262.7882  1.00272618 11683
AMAZONAS 5              
1 42934U 17053A   20308.15505868 -.00000270  00000-0  00000+0 0  9998
2 42934   0.0344 310.7374 0003441 301.7413 145.2730  1.00271463 11559
ASIASAT 9               
1 42942U 17057A   20307.61748413 -.00000348  00000-0  00000-0 0  9993
2 42942   0.0003 256.5860 0002325 327.5505 162.6364  1.00270887 11369
INTELSAT 37E (IS-37E)   
1 42950U 17059A   20308.16381628 -.00000128  00000-0  00000+0 0  9991
2 42950   0.0125 269.2575 0003185 315.4489 219.1726  1.00271335 11470
BSAT-4A                 
1 42951U 17059B   20308.03660478 -.00000338  00000-0  00000+0 0  9994
2 42951   0.0961  74.0663 0000357 294.8757 156.8643  1.00272972 11377
QZS-4 (MICHIBIKI-4)     
1 42965U 17062A   20308.52411255 -.00000306  00000-0  00000+0 0  9999
2 42965  40.8304   9.7763 0750940 270.4794  90.7272  1.00268348 11233
SES-11 (ECHOSTAR 105)   
1 42967U 17063A   20308.17738935 -.00000077  00000-0  00000+0 0  9995
2 42967   0.0527  91.5671 0002512 149.8746 120.4071  1.00272267 11220
KOREASAT 5A             
1 42984U 17067A   20307.90280623 -.00000346  00000-0  00000-0 0  9994
2 42984   0.0108 231.4440 0002051 332.7115 276.6663  1.00272176 10964
ALCOMSAT 1              
1 43039U 17078A   20307.87532689 -.00000173  00000-0  00000-0 0  9994
2 43039   0.0377 168.5022 0002152  46.8589 117.5846  1.00270874 10701
SBIRS GEO-3 (USA 282)   
1 43162U 18009A   20307.90795316 -.00000284  00000-0  00000-0 0  9991
2 43162   4.6945 317.0429 0002652 258.8502 292.6025  1.00271825 10268
AL YAH 3                
1 43174U 18012A   20308.16338010 -.00000143  00000-0  00000+0 0  9994
2 43174   0.0175 281.7881 0002143 304.4875 215.3772  1.00271494 10253
SES-14                  
1 43175U 18012B   20308.08608902 -.00000266  00000-0  00000+0 0  9992
2 43175   0.0142 284.2925 0001144 304.4688 157.5688  1.00270922 10480
GOES 17                 
1 43226U 18022A   20307.70916919  .00000110  00000-0  00000-0 0  9996
2 43226   0.0247 279.1427 0000465 314.7031 286.7078  1.00272017  9836
HISPASAT 30W-6          
1 43228U 18023A   20307.87428006 -.00000203  00000-0  00000-0 0  9996
2 43228   0.0540  59.1570 0002215 153.7968 114.4547  1.00272618  9895
